ONEWEB-0687             
1 61595U 24188B   25066.62334705  .00002573  00000+0  30744-3 0  9995
2 61595  86.5726 111.0839 0006948  95.7829 264.4186 14.83807189 21768
ONEWEB-0688             
1 61596U 24188C   25066.62658277  .00002552  00000+0  30493-3 0  9997
2 61596  86.5738 111.1083 0006478  96.6951 263.5010 14.83809100 21534
ONEWEB-0691             
1 61599U 24188F   25067.16668981 -.01013732  00000+0 -92910+0 0  9996
2 61599  87.3295 115.1945 0007701  91.8801 212.3606 13.86302558 21547
ONEWEB-0693             
1 61601U 24188H   25066.62739747  .00002775  00000+0  33187-3 0  9996
2 61601  86.5652 110.9730 0005009 110.4673 249.7088 14.83810305 23483
ONEWEB-0695             
1 61602U 24188J   25067.25002315 -.01003712  00000+0 -95945+0 0  9992
2 61602  87.3445 115.2146 0004777  97.5473 210.5281 13.83806325 21526
